[{"OBJECT_NAME":"STARLINK-30376","OBJECT_ID":"2023-134M","EPOCH":"2026-03-09T09:17:58.168320","MEAN_MOTION":15.26735214,"ECCENTRICITY":0.00017213,"INCLINATION":42.9998,"RA_OF_ASC_NODE":195.9286,"ARG_OF_PERICENTER":263.6896,"MEAN_ANOMALY":96.3759,"EPHEMERIS_TYPE":0,"CLASSIFICATION_TYPE":"U","NORAD_CAT_ID":57782,"ELEMENT_SET_NO":999,"REV_AT_EPOCH":13946,"BSTAR":-0.00011319869,"MEAN_MOTION_DOT":-3.295e-5,"MEAN_MOTION_DDOT":0},{"OBJECT_NAME":"VSP RF C1","OBJECT_ID":"2024-043AQ","EPOCH":"2026-03-09T21:56:05.358624","MEAN_MOTION":15.29409663,"ECCENTRICITY":0.00093965,"INCLINATION":97.5441,"RA_OF_ASC_NODE":205.1792,"ARG_OF_PERICENTER":219.6172,"MEAN_ANOMALY":140.4382,"EPHEMERIS_TYPE":0,"CLASSIFICATION_TYPE":"U","NORAD_CAT_ID":59136,"ELEMENT_SET_NO":999,"REV_AT_EPOCH":11190,"BSTAR":0.00026222052,"MEAN_MOTION_DOT":7.409e-5,"MEAN_MOTION_DDOT":0}]
